satname,norad_id,inclination_deg,eccentricity,mean_motion_rev_per_day,perigee_km,apogee_km,l1,l2
STARLINK-1260,45404,53.1616,0.0001066,15.30190582,474.5126196856927,475.9737603422045,1 45404U 20019AW  26065.62793039  .00003897  00000+0  14367-3 0  9997,2 45404  53.1616 143.4627 0001066  88.4511 271.6612 15.30190582329506
STARLINK-1263,45405,53.1611,0.0001434,15.30193247,474.2524591560659,476.2180063124151,1 45405U 20019AX  26065.48572077  .00000791  00000+0  38832-4 0  9993,2 45405  53.1611 144.1530 0001434  83.1056 277.0108 15.30193247329486
STARLINK-1265,45406,53.1598,0.0001479,15.30184147,474.24878625660494,476.2760218003168,1 45406U 20019AY  26065.63110223 -.00004464  00000+0 -13876-3 0  9995,2 45406  53.1598 143.5500 0001479 118.4617 241.6533 15.30184147329506
STARLINK-1278,45408,53.0451,0.0001395,15.55269066,400.4248591679625,402.31634178849527,1 45408U 20019BA  26065.91668981  .00073001  00000+0  10563-2 0  9997,2 45408  53.0451 143.8183 0001395  42.7319 104.9101 15.55269066  5908
STARLINK-1296,45412,53.1607,0.0001451,15.30187888,474.256807273925,476.2456605394045,1 45412U 20019BE  26065.49413888 -.00002404  00000+0 -69071-4 0  9990,2 45412  53.1607 144.0897 0001451  99.8159 260.3006 15.30187888329487
STARLINK-1298,45413,53.0348,0.0006697,15.94536946,285.1395624002889,294.07033596702604,1 45413U 20019BF  26065.91668981  .00279759  41530-4  72702-3 0  9993,2 45413  53.0348  68.1092 0006697  10.0715 337.0766 15.94536946  6000
STARLINK-1309,45414,53.0677,0.0005126,15.54186347,401.0420606334137,407.9956394108558,1 45414U 20019BG  26065.60618200  .00129797  00000+0  19337-2 0  9991,2 45414  53.0677 138.4998 0005126  19.7757 340.3451 15.54186347329558
STARLINK-1316,45415,53.1614,0.0001541,15.30192781,474.18051926135104,476.2927290123107,1 45415U 20019BH  26065.40882325 -.00001486  00000+0 -38067-4 0  9990,2 45415  53.1614 144.5391 0001541 111.1433 248.9733 15.30192781329493
STARLINK-1286,45417,53.0486,0.0002843,15.50615382,412.9969283158125,416.85946518668425,1 45417U 20019BK  26065.51274476  .00038009  00000+0  65708-3 0  9996,2 45417  53.0486 145.9849 0002843  59.1339 300.9949 15.50615382329730
STARLINK-1308,45419,53.0555,9.07e-05,15.49846243,416.55912970267946,417.7917993837482,1 45419U 20019BM  26065.26555231  .00041890  00000+0  74298-3 0  9997,2 45419  53.0555 168.5388 0000907  18.4101 341.6940 15.49846243329140
STARLINK-1329,45531,53.0509,9.96e-05,15.55602855,399.72562789275344,401.07591261658763,1 45531U 20025A   26065.91668981  .00077818  00000+0  11111-2 0  9991,2 45531  53.0509  94.7728 0000996 313.6762 255.8488 15.55602855  5952
STARLINK-1338,45532,53.0491,0.0005055,15.54102146,401.3350802265295,408.192592972332,1 45532U 20025B   26065.91668981  .00135613  00000+0  20248-2 0  9991,2 45532  53.0491  98.1228 0005055 350.8574 252.1376 15.54102146  5954
STARLINK-1350,45535,53.0741,0.0001931,15.36000541,456.63017795250107,459.270274839334,1 45535U 20025E   26065.34235914  .00015669  00000+0  45045-3 0  9998,2 45535  53.0741  48.8626 0001931  68.2701 291.8507 15.36000541325643
STARLINK-1362,45538,53.1621,0.0001331,15.30184061,474.35047331855094,476.17484830825924,1 45538U 20025H   26065.39023853  .00001184  00000+0  52105-4 0  9996,2 45538  53.1621 116.3237 0001331  78.6250 281.4900 15.30184061324679
STARLINK-1368,45540,53.1601,0.0001292,15.30185903,474.3717023178824,476.14261936904404,1 45540U 20025K   26065.39976875  .00000321  00000+0  22971-4 0  9990,2 45540  53.1601 116.6091 0001292  93.8763 266.2386 15.30185903324669
STARLINK-1371,45542,53.0503,0.0001688,15.46449508,425.9735790997365,428.27103464173524,1 45542U 20025M   26065.51715443  .00107181  00000+0  21081-2 0  9999,2 45542  53.0503 104.5720 0001688 328.1147  31.9757 15.46449508324845
STARLINK-1372,45543,53.1602,0.0001121,15.30193638,474.4658023739639,476.00232816679727,1 45543U 20025N   26065.37654668 -.00001672  00000+0 -44362-4 0  9994,2 45543  53.1602 116.4107 0001121 110.7762 249.3359 15.30193638323764
STARLINK-1373,45544,53.0493,0.0004844,15.50073518,413.21989215736994,419.8025473526686,1 45544U 20025P   26065.34500191  .00095912  00000+0  16653-2 0  9991,2 45544  53.0493 105.0295 0004844 353.4965   6.5979 15.50073518324825
STARLINK-1327,45555,53.0477,0.000638,15.53274415,402.84430719247393,411.5023631801714,1 45555U 20025AA  26065.83334490  .00119074  00000+0  18363-2 0  9990,2 45555  53.0477  80.4143 0006380  44.6508  16.0338 15.53274415  5908
STARLINK-1356,45564,53.0514,0.0006235,15.44134308,429.6756056946251,438.17024442117236,1 45564U 20025AK  26065.36640786  .00081154  00000+0  17345-2 0  9992,2 45564  53.0514  89.6718 0006235  18.6895 341.4338 15.44134308325038
STARLINK-1357,45565,53.0532,0.0003763,15.54774383,400.2568796413525,405.36021926187004,1 45565U 20025AL  26065.83334490  .00157004  00000+0  22805-2 0  9992,2 45565  53.0532  51.8263 0003763  73.3031 345.0054 15.54774383  5942
STARLINK-1361,45567,53.0508,0.0007779,15.4701192,420.18032306965506,430.76537927611116,1 45567U 20025AN  26065.84771838  .00091053  00000+0  17598-2 0  9990,2 45567  53.0508  87.4923 0007779  20.3032 339.8282 15.47011920325110
STARLINK-1363,45568,53.0419,0.0008399,15.75891351,336.45161057805035,347.7402578609517,1 45568U 20025AP  26065.83334490  .00175956  00000+0  10945-2 0  9993,2 45568  53.0419  51.9750 0008399  47.5777 250.4182 15.75891351  5951
STARLINK-1366,45569,53.0435,0.0008714,15.75054397,338.6183075715526,350.3344781926671,1 45569U 20025AQ  26065.35057483  .00105536  00000+0  68810-3 0  9997,2 45569  53.0435  55.1418 0008714  44.5421 315.6297 15.75054397325510
STARLINK-1376,45570,53.1596,0.0001251,15.29346508,476.90695447680264,478.6223010640715,1 45570U 20025AR  26065.45173917 -.00001520  00000+0 -40361-4 0  9993,2 45570  53.1596  92.8235 0001251  89.2906 270.8238 15.29346508325007
STARLINK-1320,45572,53.0503,0.0007565,15.6815571,359.077645303757,369.27876821158225,1 45572U 20025AT  26065.81182873  .00090906  00000+0  79514-3 0  9991,2 45572  53.0503 359.9255 0007565  46.6628 313.5017 15.68155710326352
STARLINK-1321,45573,53.0498,0.0004503,15.4770657,420.37419489698186,426.4996923906274,1 45573U 20025AU  26065.40119269  .00100814  00000+0  19001-2 0  9990,2 45573  53.0498  74.2185 0004503  35.4919 324.6387 15.47706570324953
STARLINK-1331,45578,53.053,0.0004485,15.47653876,420.5407527513453,426.641903061477,1 45578U 20025AZ  26065.60225258  .00101794  00000+0  19218-2 0  9991,2 45578  53.0530  79.9317 0004485  71.1801 288.9692 15.47653876325200
STARLINK-1333,45580,53.1593,0.0001319,15.30193835,474.32951749395306,476.13743662580146,1 45580U 20025BB  26065.36231046 -.00000885  00000+0 -17775-4 0  9998,2 45580  53.1593  93.2651 0001319 106.9547 253.1598 15.30193835324990
STARLINK-1335,45581,53.1546,0.0001541,15.29338824,476.731094269785,478.8440902291177,1 45581U 20025BC  26065.83334490  .00038394  00000+0  13367-2 0  9993,2 45581  53.1546  88.3038 0001541 100.5178 291.2296 15.29338824  5722
STARLINK-1337,45582,53.0532,0.0004735,15.57628246,391.31653264334636,397.73024203015484,1 45582U 20025BD  26065.60537609  .00071640  00000+0  94980-3 0  9998,2 45582  53.0532  76.7298 0004735  68.3217 291.8298 15.57628246325239
STARLINK-1347,45586,53.0465,0.0005983,15.53320582,402.9793174371598,411.0984589049467,1 45586U 20025BH  26065.33710254  .00102694  00000+0  15854-2 0  9997,2 45586  53.0465  45.6653 0005983  42.6304 317.5169 15.53320582325642
STARLINK-1364,45589,53.05,0.0007312,15.48785129,415.30787508932826,425.249878467529,1 45589U 20025BL  26065.33346066  .00100401  00000+0  18216-2 0  9995,2 45589  53.0500  79.2907 0007312  44.2942 315.8650 15.48785129325174
STARLINK-1365,45590,53.0513,0.0003524,15.44759584,429.6846565078604,434.4845006764517,1 45590U 20025BM  26065.49900454  .00086706  00000+0  18131-2 0  9998,2 45590  53.0513 108.7370 0003524  19.4063 340.7076 15.44759584324799
STARLINK-1443,45660,53.1374,0.0002184,15.24954887,489.42070051281735,492.42110500474246,1 45660U 20035D   26065.30752907  .00012259  00000+0  49823-3 0  9990,2 45660  53.1374  80.5092 0002184  55.2101 304.9102 15.24954887318249
STARLINK-1446,45663,53.0263,3.69e-05,15.42745787,437.7581788872503,438.2612105133194,1 45663U 20035G   26065.83131815  .00025820  00000+0  58910-3 0  9995,2 45663  53.0263  12.9534 0000369 257.0357 103.0606 15.42745787319230
STARLINK-1448,45665,53.0511,0.0007807,15.51602702,406.74507404864926,417.34726605036485,1 45665U 20035J   26065.81739093  .00128263  00000+0  20967-2 0  9992,2 45665  53.0511  66.5572 0007807  64.1164 296.0648 15.51602702318475
STARLINK-1451,45668,53.0521,0.0001666,15.09866453,535.4557138956743,537.7597068331679,1 45668U 20035M   26065.43743234  .00035403  00000+0  21694-2 0  9996,2 45668  53.0521  80.7427 0001666  18.0293 342.0757 15.09866453318251
STARLINK-1452,45669,53.0348,0.0007889,15.44317344,428.0110511081566,438.7582699841669,1 45669U 20035N   26065.31606304  .00073522  00000+0  15634-2 0  9991,2 45669  53.0348  37.8011 0007889  41.7385 318.4221 15.44317344318846
STARLINK-1453,45670,53.0488,0.0007405,15.5171345,406.69519144932747,416.7509742320144,1 45670U 20035P   26065.83334490  .00128190  00000+0  20875-2 0  9999,2 45670  53.0488  27.0776 0007405  38.7770  98.4758 15.51713450  5782
STARLINK-1454,45671,53.0518,0.0009142,15.50036067,410.4088972118534,422.83243212593334,1 45671U 20035Q   26065.39957665  .00133997  00000+0  23128-2 0  9991,2 45671  53.0518  68.6656 0009142  41.3986 318.7713 15.50036067318400
STARLINK-1456,45673,53.0492,0.0001708,15.49800346,416.1489627307674,418.47028729787235,1 45673U 20035S   26065.39441922  .00032295  00000+0  57623-3 0  9994,2 45673  53.0492  62.1356 0001708  99.0758 261.0443 15.49800346318515
STARLINK-1457,45674,53.0476,0.0009541,15.77649284,330.6958773725746,343.5098981263782,1 45674U 20035T   26065.83334490  .00163620  00000+0  94271-3 0  9992,2 45674  53.0476  36.7250 0009541  59.6924  29.1974 15.77649284  5954
